[{"OBJECT_NAME":"ONEWEB-0166","OBJECT_ID":"2021-025Z","EPOCH":"2025-12-10T07:15:51.063840","MEAN_MOTION":13.13471307,"ECCENTRICITY":0.00015765,"INCLINATION":87.8986,"RA_OF_ASC_NODE":357.736,"ARG_OF_PERICENTER":95.8187,"MEAN_ANOMALY":264.3122,"EPHEMERIS_TYPE":0,"CLASSIFICATION_TYPE":"U","NORAD_CAT_ID":48065,"ELEMENT_SET_NO":999,"REV_AT_EPOCH":22885,"BSTAR":-0.0010213429,"MEAN_MOTION_DOT":-3.6e-6,"MEAN_MOTION_DDOT":0},{"OBJECT_NAME":"ONEWEB-0151","OBJECT_ID":"2021-025AA","EPOCH":"2025-12-10T07:18:17.476416","MEAN_MOTION":13.13471164,"ECCENTRICITY":0.00017987,"INCLINATION":87.899,"RA_OF_ASC_NODE":357.7621,"ARG_OF_PERICENTER":87.0614,"MEAN_ANOMALY":273.0721,"EPHEMERIS_TYPE":0,"CLASSIFICATION_TYPE":"U","NORAD_CAT_ID":48066,"ELEMENT_SET_NO":999,"REV_AT_EPOCH":22879,"BSTAR":-0.00070771364,"MEAN_MOTION_DOT":-2.46e-6,"MEAN_MOTION_DDOT":0},{"OBJECT_NAME":"ONEWEB-0170","OBJECT_ID":"2021-025AB","EPOCH":"2025-12-10T02:01:23.434464","MEAN_MOTION":13.13472264,"ECCENTRICITY":0.00021749,"INCLINATION":87.8981,"RA_OF_ASC_NODE":357.8107,"ARG_OF_PERICENTER":86.1995,"MEAN_ANOMALY":273.9383,"EPHEMERIS_TYPE":0,"CLASSIFICATION_TYPE":"U","NORAD_CAT_ID":48067,"ELEMENT_SET_NO":999,"REV_AT_EPOCH":22872,"BSTAR":-0.00038327765,"MEAN_MOTION_DOT":-1.27e-6,"MEAN_MOTION_DDOT":0},{"OBJECT_NAME":"ONEWEB-0168","OBJECT_ID":"2021-025AC","EPOCH":"2025-12-10T07:08:32.370432","MEAN_MOTION":13.13470709,"ECCENTRICITY":0.00015742,"INCLINATION":87.8991,"RA_OF_ASC_NODE":357.7534,"ARG_OF_PERICENTER":89.6428,"MEAN_ANOMALY":270.4881,"EPHEMERIS_TYPE":0,"CLASSIFICATION_TYPE":"U","NORAD_CAT_ID":48068,"ELEMENT_SET_NO":999,"REV_AT_EPOCH":22876,"BSTAR":-0.0010270969,"MEAN_MOTION_DOT":-3.62e-6,"MEAN_MOTION_DDOT":0},{"OBJECT_NAME":"ONEWEB-0173","OBJECT_ID":"2021-025AD","EPOCH":"2025-12-10T06:56:21.051456","MEAN_MOTION":13.13470904,"ECCENTRICITY":0.00015029,"INCLINATION":87.8989,"RA_OF_ASC_NODE":357.7625,"ARG_OF_PERICENTER":79.6573,"MEAN_ANOMALY":280.4726,"EPHEMERIS_TYPE":0,"CLASSIFICATION_TYPE":"U","NORAD_CAT_ID":48069,"ELEMENT_SET_NO":999,"REV_AT_EPOCH":22900,"BSTAR":-0.00039974915,"MEAN_MOTION_DOT":-1.33e-6,"MEAN_MOTION_DDOT":0},{"OBJECT_NAME":"ONEWEB-0171","OBJECT_ID":"2021-025AE","EPOCH":"2025-12-10T07:49:59.647584","MEAN_MOTION":13.1347147,"ECCENTRICITY":0.000176,"INCLINATION":87.8971,"RA_OF_ASC_NODE":357.7779,"ARG_OF_PERICENTER":87.7053,"MEAN_ANOMALY":272.4277,"EPHEMERIS_TYPE":0,"CLASSIFICATION_TYPE":"U","NORAD_CAT_ID":48070,"ELEMENT_SET_NO":999,"REV_AT_EPOCH":22882,"BSTAR":0.00037500431,"MEAN_MOTION_DOT":1.5e-6,"MEAN_MOTION_DDOT":0},{"OBJECT_NAME":"ONEWEB-0172","OBJECT_ID":"2021-025AF","EPOCH":"2025-12-10T01:51:38.414880","MEAN_MOTION":13.13471734,"ECCENTRICITY":0.00017057,"INCLINATION":87.8991,"RA_OF_ASC_NODE":357.8093,"ARG_OF_PERICENTER":86.0532,"MEAN_ANOMALY":274.0792,"EPHEMERIS_TYPE":0,"CLASSIFICATION_TYPE":"U","NORAD_CAT_ID":48071,"ELEMENT_SET_NO":999,"REV_AT_EPOCH":22968,"BSTAR":-0.00078062312,"MEAN_MOTION_DOT":-2.72e-6,"MEAN_MOTION_DDOT":0},{"OBJECT_NAME":"ONEWEB-0174","OBJECT_ID":"2021-025AG","EPOCH":"2025-12-10T06:53:54.762432","MEAN_MOTION":13.13470733,"ECCENTRICITY":0.00015733,"INCLINATION":87.8979,"RA_OF_ASC_NODE":357.7719,"ARG_OF_PERICENTER":94.3641,"MEAN_ANOMALY":265.7668,"EPHEMERIS_TYPE":0,"CLASSIFICATION_TYPE":"U","NORAD_CAT_ID":48072,"ELEMENT_SET_NO":999,"REV_AT_EPOCH":22903,"BSTAR":-0.00052276571,"MEAN_MOTION_DOT":-1.78e-6,"MEAN_MOTION_DDOT":0},{"OBJECT_NAME":"ONEWEB-0175","OBJECT_ID":"2021-025AH","EPOCH":"2025-12-10T07:37:47.735904","MEAN_MOTION":13.13471339,"ECCENTRICITY":0.00019341,"INCLINATION":87.8984,"RA_OF_ASC_NODE":357.735,"ARG_OF_PERICENTER":83.1806,"MEAN_ANOMALY":276.9543,"EPHEMERIS_TYPE":0,"CLASSIFICATION_TYPE":"U","NORAD_CAT_ID":48073,"ELEMENT_SET_NO":999,"REV_AT_EPOCH":22869,"BSTAR":-0.00027477054,"MEAN_MOTION_DOT":-8.8e-7,"MEAN_MOTION_DDOT":0},{"OBJECT_NAME":"ONEWEB-0177","OBJECT_ID":"2021-025AJ","EPOCH":"2025-12-10T07:54:52.240320","MEAN_MOTION":13.13470561,"ECCENTRICITY":0.00014998,"INCLINATION":87.8987,"RA_OF_ASC_NODE":357.752,"ARG_OF_PERICENTER":91.6235,"MEAN_ANOMALY":268.5066,"EPHEMERIS_TYPE":0,"CLASSIFICATION_TYPE":"U","NORAD_CAT_ID":48074,"ELEMENT_SET_NO":999,"REV_AT_EPOCH":22888,"BSTAR":0.0004648655,"MEAN_MOTION_DOT":1.83e-6,"MEAN_MOTION_DDOT":0},{"OBJECT_NAME":"ONEWEB-0178","OBJECT_ID":"2021-025AK","EPOCH":"2025-12-10T01:03:05.725728","MEAN_MOTION":13.13470554,"ECCENTRICITY":0.00017004,"INCLINATION":87.8977,"RA_OF_ASC_NODE":357.8504,"ARG_OF_PERICENTER":82.1711,"MEAN_ANOMALY":277.9611,"EPHEMERIS_TYPE":0,"CLASSIFICATION_TYPE":"U","NORAD_CAT_ID":48075,"ELEMENT_SET_NO":999,"REV_AT_EPOCH":22889,"BSTAR":0.00058937223,"MEAN_MOTION_DOT":2.28e-6,"MEAN_MOTION_DDOT":0},{"OBJECT_NAME":"ONEWEB-0108","OBJECT_ID":"2021-025AL","EPOCH":"2025-12-10T07:23:11.177664","MEAN_MOTION":13.1347106,"ECCENTRICITY":0.00018234,"INCLINATION":87.8984,"RA_OF_ASC_NODE":357.7462,"ARG_OF_PERICENTER":98.4575,"MEAN_ANOMALY":261.6761,"EPHEMERIS_TYPE":0,"CLASSIFICATION_TYPE":"U","NORAD_CAT_ID":48076,"ELEMENT_SET_NO":999,"REV_AT_EPOCH":22885,"BSTAR":-0.00087102239,"MEAN_MOTION_DOT":-3.05e-6,"MEAN_MOTION_DDOT":0},{"OBJECT_NAME":"ONEWEB-0169","OBJECT_ID":"2021-025AM","EPOCH":"2025-12-10T02:40:23.104992","MEAN_MOTION":13.13468275,"ECCENTRICITY":0.00017894,"INCLINATION":87.8982,"RA_OF_ASC_NODE":357.8062,"ARG_OF_PERICENTER":99.2462,"MEAN_ANOMALY":260.887,"EPHEMERIS_TYPE":0,"CLASSIFICATION_TYPE":"U","NORAD_CAT_ID":48077,"ELEMENT_SET_NO":999,"REV_AT_EPOCH":22748,"BSTAR":0.0010725209,"MEAN_MOTION_DOT":4.04e-6,"MEAN_MOTION_DDOT":0},{"OBJECT_NAME":"ONEWEB-0176","OBJECT_ID":"2021-031A","EPOCH":"2025-12-09T17:19:25.944384","MEAN_MOTION":13.14504235,"ECCENTRICITY":0.00017918,"INCLINATION":87.8988,"RA_OF_ASC_NODE":327.4477,"ARG_OF_PERICENTER":81.3691,"MEAN_ANOMALY":278.7642,"EPHEMERIS_TYPE":0,"CLASSIFICATION_TYPE":"U","NORAD_CAT_ID":48210,"ELEMENT_SET_NO":999,"REV_AT_EPOCH":22342,"BSTAR":0.00084189676,"MEAN_MOTION_DOT":3.25e-6,"MEAN_MOTION_DDOT":0},{"OBJECT_NAME":"ONEWEB-0184","OBJECT_ID":"2021-031B","EPOCH":"2025-12-09T22:09:26.707392","MEAN_MOTION":13.14503559,"ECCENTRICITY":0.00022485,"INCLINATION":87.8998,"RA_OF_ASC_NODE":327.388,"ARG_OF_PERICENTER":65.5692,"MEAN_ANOMALY":294.5672,"EPHEMERIS_TYPE":0,"CLASSIFICATION_TYPE":"U","NORAD_CAT_ID":48211,"ELEMENT_SET_NO":999,"REV_AT_EPOCH":22342,"BSTAR":-0.00025350155,"MEAN_MOTION_DOT":-8.1e-7,"MEAN_MOTION_DDOT":0},{"OBJECT_NAME":"ONEWEB-0179","OBJECT_ID":"2021-031C","EPOCH":"2025-12-10T04:45:39.284640","MEAN_MOTION":13.14484475,"ECCENTRICITY":0.00018187,"INCLINATION":87.9,"RA_OF_ASC_NODE":327.341,"ARG_OF_PERICENTER":89.4445,"MEAN_ANOMALY":270.6893,"EPHEMERIS_TYPE":0,"CLASSIFICATION_TYPE":"U","NORAD_CAT_ID":48212,"ELEMENT_SET_NO":999,"REV_AT_EPOCH":22350,"BSTAR":-0.0054799982,"MEAN_MOTION_DOT":-2.018e-5,"MEAN_MOTION_DDOT":0}]
