ONEWEB-0166             
1 48065U 21025Z   25344.30267435 -.00000360  00000+0 -10213-2 0  9990
2 48065  87.8986 357.7360 0001576  95.8187 264.3122 13.13471307228854
ONEWEB-0151             
1 48066U 21025AA  25344.30436894 -.00000246  00000+0 -70771-3 0  9997
2 48066  87.8990 357.7621 0001798  87.0614 273.0721 13.13471164228790
ONEWEB-0170             
1 48067U 21025AB  25344.08429901 -.00000127  00000+0 -38328-3 0  9994
2 48067  87.8981 357.8107 0002174  86.1995 273.9383 13.13472264228720
ONEWEB-0168             
1 48068U 21025AC  25344.29759688 -.00000362  00000+0 -10271-2 0  9993
2 48068  87.8991 357.7534 0001574  89.6428 270.4881 13.13470709228768
ONEWEB-0173             
1 48069U 21025AD  25344.28913254 -.00000133  00000+0 -39975-3 0  9993
2 48069  87.8989 357.7625 0001502  79.6573 280.4726 13.13470904229002
ONEWEB-0171             
1 48070U 21025AE  25344.32638481  .00000150  00000+0  37500-3 0  9995
2 48070  87.8971 357.7779 0001760  87.7053 272.4277 13.13471470228824
ONEWEB-0172             
1 48071U 21025AF  25344.07752795 -.00000272  00000+0 -78062-3 0  9998
2 48071  87.8991 357.8093 0001705  86.0532 274.0792 13.13471734229688
ONEWEB-0174             
1 48072U 21025AG  25344.28743938 -.00000178  00000+0 -52277-3 0  9996
2 48072  87.8979 357.7719 0001573  94.3641 265.7668 13.13470733229031
ONEWEB-0175             
1 48073U 21025AH  25344.31791361 -.00000088  00000+0 -27477-3 0  9998
2 48073  87.8984 357.7350 0001934  83.1806 276.9543 13.13471339228699
ONEWEB-0177             
1 48074U 21025AJ  25344.32977130  .00000183  00000+0  46487-3 0  9996
2 48074  87.8987 357.7520 0001499  91.6235 268.5066 13.13470561228882
ONEWEB-0178             
1 48075U 21025AK  25344.04381627  .00000228  00000+0  58937-3 0  9999
2 48075  87.8977 357.8504 0001700  82.1711 277.9611 13.13470554228897
ONEWEB-0108             
1 48076U 21025AL  25344.30776826 -.00000305  00000+0 -87102-3 0  9992
2 48076  87.8984 357.7462 0001823  98.4575 261.6761 13.13471060228857
ONEWEB-0169             
1 48077U 21025AM  25344.11137853  .00000404  00000+0  10725-2 0  9997
2 48077  87.8982 357.8062 0001789  99.2462 260.8870 13.13468275227482
ONEWEB-0176             
1 48210U 21031A   25343.72182806  .00000325  00000+0  84190-3 0  9997
2 48210  87.8988 327.4477 0001791  81.3691 278.7642 13.14504235223422
ONEWEB-0184             
1 48211U 21031B   25343.92322578 -.00000081  00000+0 -25350-3 0  9996
2 48211  87.8998 327.3880 0002248  65.5692 294.5672 13.14503559223421
ONEWEB-0179             
1 48212U 21031C   25344.19837135 -.00002018  00000+0 -54800-2 0  9990
2 48212  87.9000 327.3410 0001818  89.4445 270.6893 13.14484475223503
